GALAXY 13 (HORIZONS-1)  
1 27954U 03044A   16297.50337274  .00000023  00000-0  00000+0 0  9998
2 27954   0.0258 101.2711 0002518 156.8027 188.5202  1.00273410 47827
ZHONGXING-20            
1 28082U 03052A   16296.96282792 -.00000347  00000-0  00000-0 0  9994
2 28082   3.0401  72.3982 0005819 188.8978 220.3975  1.00271534 47421
YAMAL 202               
1 28089U 03053A   16296.97188505  .00000095  00000-0  00000-0 0  9999
2 28089   0.0505  62.8153 0003642 205.7913 162.1075  1.00271473 47341
AMOS-2                  
1 28132U 03059A   16297.08211720 -.00000058  00000-0  00000+0 0  9992
2 28132   0.2277  89.3318 0002411 131.8448 196.3070  1.00274363 47053
EXPRESS-AM22 (SESAT 2)  
1 28134U 03060A   16297.08219784 -.00000161  00000-0  00000+0 0  9999
2 28134   0.0572 283.8665 0001215 331.3595 246.4174  1.00271509 46935
AMC-10 (GE-10)          
1 28154U 04003A   16295.58474444  .00000065  00000-0  00000-0 0  9991
2 28154   0.0163  53.3706 0001822 114.4135 298.2084  1.00272813 46577
ABS-4 (MOBISAT-1)       
1 28184U 04007A   16296.88985574  .00000016  00000-0  00000-0 0  9999
2 28184   0.0230 267.3183 0002045 301.7691 204.0121  1.00272481 16998
EUTELSAT 7A             
1 28187U 04008A   16297.20724951  .00000024  00000-0  00000+0 0  9998
2 28187   0.0630  15.6308 0005756 198.9761 259.0736  1.00273101 46247
DIRECTV 7S              
1 28238U 04016A   16297.54282021 -.00000023  00000-0  00000+0 0  9998
2 28238   0.0350  25.6466 0003053 201.3789 241.7143  1.00271782 45732
AMC-11 (GE-11)          
1 28252U 04017A   16297.43214774  .00000045  00000-0  00000+0 0  9996
2 28252   0.0405  67.7291 0002557 157.1129 192.0297  1.00271893 45377
INTELSAT 10-02          
1 28358U 04022A   16296.25975492 -.00000034  00000-0  00000-0 0  9999
2 28358   0.0085 189.2260 0000957   6.4777 287.9640  1.00272618 45306
APSTAR 5 (TELSTAR 18)   
1 28364U 04024A   16296.86959286 -.00000318  00000-0  00000+0 0  9992
2 28364   0.0409  92.9905 0002827 118.1649 271.6419  1.00272778 45217
ANIK F2                 
1 28378U 04027A   16296.59688721 -.00000074  00000-0  00000+0 0  9992
2 28378   0.0490  57.4243 0001426 237.5792 200.2762  1.00271671 45010
AMAZONAS 1              
1 28393U 04031A   16297.16903911 -.00000269  00000-0  00000+0 0  9995
2 28393   1.2579  84.7320 0005284 151.5078 180.4616  1.00273604 44783
AMC-15                  
1 28446U 04041A   16297.36272477 -.00000112  00000-0  00000+0 0  9990
2 28446   0.0060  43.8980 0003007 199.0443 174.7763  1.00268710 44057
AMC-16                  
1 28472U 04048A   16297.10152626 -.00000230  00000-0  00000+0 0  9992
2 28472   0.0175  84.4997 0002678 140.8997 118.0817  1.00268225 43470
NSS-10 (AMC-12)         
1 28526U 05003A   16296.32670484 -.00000274  00000-0  00000+0 0  9992
2 28526   0.0279 350.9509 0002742 243.6061 236.8018  1.00272365 42977
XTAR-EUR                
1 28542U 05005A   16295.83410916  .00000128  00000-0  00000-0 0  9997
2 28542   0.0644 272.1238 0002894 307.5134 140.3643  1.00270218 42860
XM-3 (RHYTHM)           
1 28626U 05008A   16297.30065112 -.00000230  00000-0  00000+0 0  9995
2 28626   0.0095 121.3512 0000408 121.9901 171.9545  1.00273738 42739
INMARSAT 4-F1           
1 28628U 05009A   16294.74171118 -.00000281  00000-0  00000+0 0  9993
2 28628   2.8443   8.5100 0003715 218.9925 212.6508  1.00271275 42314
EXPRESS-AM2             
1 28629U 05010A   16297.07154269 -.00000160  00000-0  00000+0 0  9999
2 28629   1.8487  80.1937 0001524 148.0409 269.4781  1.00271689 42370
APSTAR 6                
1 28638U 05012A   16296.87859759 -.00000342  00000-0  00000+0 0  9996
2 28638   0.0102 335.5168 0002665 253.1450 253.3903  1.00273888 67074
SPACEWAY 1              
1 28644U 05015A   16297.36227334 -.00000127  00000-0  00000+0 0  9990
2 28644   0.0120 204.0292 0000345  81.5319 134.1559  1.00272073 42182
DIRECTV 8               
1 28659U 05019A   16296.19382160 -.00000139  00000-0  00000+0 0  9992
2 28659   0.0147 253.4826 0003703 338.7739 127.7099  1.00270159 41844
GALAXY 28 (G-28)        
1 28702U 05022A   16297.09530992 -.00000210  00000-0  00000+0 0  9993
2 28702   0.0118 258.2768 0000658 188.9821 250.0248  1.00272904 41488
EXPRESS-AM3             
1 28707U 05023A   16297.58808069 -.00000346  00000-0  00000+0 0  9996
2 28707   0.0220 304.1483 0000935 343.8358  59.1719  1.00269621 41514
THAICOM 4               
1 28786U 05028A   16296.93994205 -.00000387  00000-0  00000+0 0  9999
2 28786   0.0144 223.2684 0002278 352.8460 273.5400  1.00270215 40986
GALAXY 14 (G-14)        
1 28790U 05030A   16297.23829277  .00000012  00000-0  00000+0 0  9991
2 28790   0.0164 325.8653 0002646 253.0503 133.9659  1.00271213 40969
ANIK F1R                
1 28868U 05036A   16297.52937885 -.00000099  00000-0  00000+0 0  9996
2 28868   0.0480  62.3328 0000619 186.2170 227.1107  1.00272165 40829
GALAXY 15 (G-15)        
1 28884U 05041A   16297.54014022  .00000055  00000-0  00000+0 0  9992
2 28884   0.0172 101.8257 0001490 133.3724 218.6588  1.00270332 40294
SYRACUSE 3A             
1 28885U 05041B   16296.04007759  .00000105  00000-0  00000+0 0  9992
2 28885   0.0188 287.0874 0003520 280.7355 244.5631  1.00268636 40388
INMARSAT 4-F2           
1 28899U 05044A   16296.75732114 -.00000012  00000-0  00000+0 0  9996
2 28899   2.5299   8.4634 0002968 214.2007 145.5070  1.00271867 40166
TELKOM 2                
1 28902U 05046A   16296.87549186 -.00000387  00000-0  00000-0 0  9997
2 28902   0.0196 149.8205 0001177  48.8172 266.2931  1.00274691 40108
SPACEWAY 2              
1 28903U 05046B   16297.54340884 -.00000151  00000-0  00000+0 0  9995
2 28903   0.0314  82.0553 0000497 236.4906 170.4129  1.00272145 40162
INSAT-4A                
1 28911U 05049A   16296.68163207 -.00000189  00000-0  00000+0 0  9994
2 28911   0.0524  92.5767 0006514 153.1596 114.2171  1.00272016 39756
METEOSAT-9 (MSG-2)      
1 28912U 05049B   16297.27464331  .00000040  00000-0  00000+0 0  9998
2 28912   1.7403  69.4995 0000537  67.7124   3.4285  1.00263803 39741
EUTELSAT 172A (GE-23)   
1 28924U 05052A   16296.54493734 -.00000030  00000-0  00000+0 0  9993
2 28924   0.0690 359.5070 0006576 221.7271 178.3570  1.00271287 39648
ECHOSTAR 10             
1 28935U 06003A   16297.48619044 -.00000080  00000-0  00000+0 0  9995
2 28935   0.0482  63.9396 0002033 179.0734 214.1685  1.00271038 39188
HIMAWARI-7 (MTSAT-2)    
1 28937U 06004A   16296.63310006 -.00000266  00000-0  00000+0 0  9996
2 28937   0.0241 275.8031 0003305 287.8639 200.7699  1.00273735 39012
SPAINSAT                
1 28945U 06007A   16295.99751176 -.00000239  00000-0  00000+0 0  9993
2 28945   0.0195 222.3537 0005753 351.5590 146.0727  1.00273234 38883
EUTELSAT HOT BIRD 13E   
1 28946U 06007B   16295.87839713  .00000064  00000-0  00000-0 0  9991
2 28946   0.0504 101.4554 0006739 109.9354 148.5912  1.00272558 38951
JCSAT-5A                
1 29045U 06010A   16296.69146414 -.00000352  00000-0  00000+0 0  9996
2 29045   0.0086 209.2211 0001192   6.0580 197.2469  1.00272386 38609
ASTRA 1KR               
1 29055U 06012A   16296.70740553  .00000095  00000-0  00000-0 0  9999
2 29055   0.0602 277.2580 0005128 306.4535  81.7299  1.00269639 10377
GOES 13                 
1 29155U 06018A   16297.12030801 -.00000273  00000-0  00000+0 0  9999
2 29155   0.0993 107.9070 0001779   8.1590 243.9732  1.00282539 38186
EUTELSAT 113 WEST A     
1 29162U 06020A   16297.22474088 -.00000062  00000-0  00000+0 0  9996
2 29162   0.0193 276.8200 0002489 285.5343 157.6556  1.00271443 38135
THAICOM 5               
1 29163U 06020B   16296.90605045 -.00000146  00000-0  00000-0 0  9994
2 29163   0.0340 276.9272 0007256 336.3370 183.1883  1.00272437 38155
GALAXY 16 (G-16)        
1 29236U 06023A   16296.56675894 -.00000151  00000-0  00000+0 0  9994
2 29236   0.0118 202.6091 0002770  16.2788 277.5789  1.00271624 37921
EUTELSAT HOT BIRD 13B   
1 29270U 06032A   16296.86218168  .00000063  00000-0  00000+0 0  9993
2 29270   0.0802 329.8953 0003222 274.4724 110.7449  1.00273846 37513
JCSAT-3A                
1 29272U 06033A   16296.93705137 -.00000369  00000-0  00000+0 0  9991
2 29272   0.0108 221.5092 0001622 336.6283 299.0107  1.00273224 37421
SYRACUSE 3B             
1 29273U 06033B   16296.15932337 -.00000067  00000-0  00000+0 0  9995
2 29273   0.0042  70.2857 0004406 167.1273 205.7775  1.00271287 37406
KOREASAT 5 (MUGUNGWHA 5)
1 29349U 06034A   16296.76184426 -.00000382  00000-0  00000+0 0  9995
2 29349   0.0108 228.8846 0001193   7.9441 182.1045  1.00269605 37296
ZHONGXING-22A           
1 29398U 06038A   16296.95796368 -.00000339  00000-0  00000-0 0  9991
2 29398   5.3780  59.2229 0009594 176.5377 242.6847  1.00270730 37078
DIRECTV 9S              
1 29494U 06043A   16296.53334810 -.00000138  00000-0  00000-0 0  9995
2 29494   0.0102 238.2801 0003322 337.7068 266.3285  1.00272284 16062
OPTUS D1                
1 29495U 06043B   16296.80191230 -.00000135  00000-0  00000+0 0  9999
2 29495   0.0496  66.1222 0003544 146.5576 267.6789  1.00271733 36805
XM-4 (BLUES)            
1 29520U 06049A   16297.47937488 -.00000047  00000-0  00000+0 0  9993
2 29520   0.0007 273.1284 0000220 345.4467 191.1227  1.00272149 36661
BADR-4                  
1 29526U 06051A   16297.20757655  .00000120  00000-0  00000+0 0  9990
2 29526   0.0582 324.4230 0004526 290.6239 237.7232  1.00271056 36554
FENGYUN 2D              
1 29640U 06053A   16296.93454361 -.00000382  00000-0  10000-3 0  9992
2 29640   4.0143  65.5600 0002295 263.0052 162.8979  1.00260389 36227
WILDBLUE-1              
1 29643U 06054A   16297.11924478 -.00000073  00000-0  00000+0 0  9990
2 29643   0.0319 114.6198 0001844 100.3061 108.8183  1.00271668 36208
AMC-18                  
1 29644U 06054B   16297.17501374 -.00000114  00000-0  00000+0 0  9999
2 29644   0.0163  54.1183 0002727 173.7841 122.1880  1.00270974 36212
